[{"OBJECT_NAME":"STARLINK-32894","OBJECT_ID":"2025-029X","EPOCH":"2026-03-09T21:47:05.339616","MEAN_MOTION":15.3021001,"ECCENTRICITY":0.00010171,"INCLINATION":53.1604,"RA_OF_ASC_NODE":231.2509,"ARG_OF_PERICENTER":100.0958,"MEAN_ANOMALY":260.0157,"EPHEMERIS_TYPE":0,"CLASSIFICATION_TYPE":"U","NORAD_CAT_ID":62969,"ELEMENT_SET_NO":999,"REV_AT_EPOCH":6135,"BSTAR":0.0011166665,"MEAN_MOTION_DOT":0.0003287,"MEAN_MOTION_DDOT":0},{"OBJECT_NAME":"CZ-4C R\/B","OBJECT_ID":"2024-089B","EPOCH":"2026-03-09T16:45:24.409152","MEAN_MOTION":15.30115456,"ECCENTRICITY":0.00763424,"INCLINATION":97.7122,"RA_OF_ASC_NODE":107.3872,"ARG_OF_PERICENTER":235.0262,"MEAN_ANOMALY":124.3793,"EPHEMERIS_TYPE":0,"CLASSIFICATION_TYPE":"U","NORAD_CAT_ID":59729,"ELEMENT_SET_NO":999,"REV_AT_EPOCH":10143,"BSTAR":0.00030010198,"MEAN_MOTION_DOT":9.476e-5,"MEAN_MOTION_DDOT":0}]
